{
  "type": "FeatureCollection",
  "features": [
    {
      "type": "Feature",
      "properties": {
        "norad_id": 66569,
        "name": "STARLINK-35835",
        "group": "last-30-days",
        "lat": -23.23529091233085,
        "lon": 111.95251658515807,
        "alt_km": 416.7297133715192,
        "timestamp": "2025-12-09T14:52:24.942091+00:00",
        "meta_object_name": "STARLINK-35835",
        "meta_object_id": "2025-268N",
        "meta_epoch": "2025-12-09T06:00:02.000160",
        "meta_mean_motion": 15.50565114,
        "meta_eccentricity": 0.00020232,
        "meta_inclination": 43.0007,
        "meta_ra_of_asc_node": 141.5489,
        "meta_arg_of_pericenter": 259.7511,
        "meta_mean_anomaly": 158.7528,
        "meta_ephemeris_type": 0,
        "meta_classification_type": "U",
        "meta_norad_cat_id": 66569,
        "meta_element_set_no": 999,
        "meta_rev_at_epoch": 410,
        "meta_bstar": -0.00054375788,
        "meta_mean_motion_dot": -0.00032097,
        "meta_mean_motion_ddot": 0,
        "tle_line1": "1 66569U 25268N   25343.25002315 -.00032097  00000+0 -54376-3 0  9990",
        "tle_line2": "2 66569  43.0007 141.5489 0002023 259.7511 158.7528 15.50565114  4101"
      },
      "geometry": {
        "type": "Point",
        "coordinates": [
          111.95251658515807,
          -23.23529091233085
        ]
      }
    },
    {
      "type": "Feature",
      "properties": {
        "norad_id": 66570,
        "name": "STARLINK-35834",
        "group": "last-30-days",
        "lat": -22.07105158680078,
        "lon": 113.58756765078638,
        "alt_km": 416.54981561745717,
        "timestamp": "2025-12-09T14:52:24.942101+00:00",
        "meta_object_name": "STARLINK-35834",
        "meta_object_id": "2025-268P",
        "meta_epoch": "2025-12-09T06:00:02.000160",
        "meta_mean_motion": 15.50562226,
        "meta_eccentricity": 0.00017503,
        "meta_inclination": 43.0007,
        "meta_ra_of_asc_node": 141.543,
        "meta_arg_of_pericenter": 270.9765,
        "meta_mean_anomaly": 149.4437,
        "meta_ephemeris_type": 0,
        "meta_classification_type": "U",
        "meta_norad_cat_id": 66570,
        "meta_element_set_no": 999,
        "meta_rev_at_epoch": 410,
        "meta_bstar": -0.00041386322,
        "meta_mean_motion_dot": -0.00024531,
        "meta_mean_motion_ddot": 0,
        "tle_line1": "1 66570U 25268P   25343.25002315 -.00024531  00000+0 -41386-3 0  9993",
        "tle_line2": "2 66570  43.0007 141.5430 0001750 270.9765 149.4437 15.50562226  4108"
      },
      "geometry": {
        "type": "Point",
        "coordinates": [
          113.58756765078638,
          -22.07105158680078
        ]
      }
    },
    {
      "type": "Feature",
      "properties": {
        "norad_id": 66571,
        "name": "STARLINK-35836",
        "group": "last-30-days",
        "lat": -20.885578906605463,
        "lon": 115.20484399189854,
        "alt_km": 416.45338832803463,
        "timestamp": "2025-12-09T14:52:24.942112+00:00",
        "meta_object_name": "STARLINK-35836",
        "meta_object_id": "2025-268Q",
        "meta_epoch": "2025-12-09T06:00:02.000160",
        "meta_mean_motion": 15.50556273,
        "meta_eccentricity": 0.00019333,
        "meta_inclination": 43.0008,
        "meta_ra_of_asc_node": 141.5393,
        "meta_arg_of_pericenter": 269.0005,
        "meta_mean_anomaly": 153.3418,
        "meta_ephemeris_type": 0,
        "meta_classification_type": "U",
        "meta_norad_cat_id": 66571,
        "meta_element_set_no": 999,
        "meta_rev_at_epoch": 410,
        "meta_bstar": -0.00030184083,
        "meta_mean_motion_dot": -0.00017995,
        "meta_mean_motion_ddot": 0,
        "tle_line1": "1 66571U 25268Q   25343.25002315 -.00017995  00000+0 -30184-3 0  9994",
        "tle_line2": "2 66571  43.0008 141.5393 0001933 269.0005 153.3418 15.50556273  4105"
      },
      "geometry": {
        "type": "Point",
        "coordinates": [
          115.20484399189854,
          -20.885578906605463
        ]
      }
    },
    {
      "type": "Feature",
      "properties": {
        "norad_id": 66572,
        "name": "STARLINK-35870",
        "group": "last-30-days",
        "lat": -19.687377785063468,
        "lon": 116.79285481477847,
        "alt_km": 416.3229456904355,
        "timestamp": "2025-12-09T14:52:24.942124+00:00",
        "meta_object_name": "STARLINK-35870",
        "meta_object_id": "2025-268R",
        "meta_epoch": "2025-12-09T06:00:02.000160",
        "meta_mean_motion": 15.50560188,
        "meta_eccentricity": 0.00019135,
        "meta_inclination": 43.0006,
        "meta_ra_of_asc_node": 141.5352,
        "meta_arg_of_pericenter": 272.6668,
        "meta_mean_anomaly": 151.5889,
        "meta_ephemeris_type": 0,
        "meta_classification_type": "U",
        "meta_norad_cat_id": 66572,
        "meta_element_set_no": 999,
        "meta_rev_at_epoch": 410,
        "meta_bstar": -0.0003756886,
        "meta_mean_motion_dot": -0.00022305,
        "meta_mean_motion_ddot": 0,
        "tle_line1": "1 66572U 25268R   25343.25002315 -.00022305  00000+0 -37569-3 0  9990",
        "tle_line2": "2 66572  43.0006 141.5352 0001913 272.6668 151.5889 15.50560188  4104"
      },
      "geometry": {
        "type": "Point",
        "coordinates": [
          116.79285481477847,
          -19.687377785063468
        ]
      }
    },
    {
      "type": "Feature",
      "properties": {
        "norad_id": 66573,
        "name": "STARLINK-35650",
        "group": "last-30-days",
        "lat": -18.449359215980788,
        "lon": 118.3883960926633,
        "alt_km": 415.9933710707437,
        "timestamp": "2025-12-09T14:52:24.942134+00:00",
        "meta_object_name": "STARLINK-35650",
        "meta_object_id": "2025-268S",
        "meta_epoch": "2025-12-09T06:00:02.000160",
        "meta_mean_motion": 15.50553635,
        "meta_eccentricity": 0.00025178,
        "meta_inclination": 43.0008,
        "meta_ra_of_asc_node": 141.5288,
        "meta_arg_of_pericenter": 277.5962,
        "meta_mean_anomaly": 148.6355,
        "meta_ephemeris_type": 0,
        "meta_classification_type": "U",
        "meta_norad_cat_id": 66573,
        "meta_element_set_no": 999,
        "meta_rev_at_epoch": 410,
        "meta_bstar": -0.00089953107,
        "meta_mean_motion_dot": -0.00052717,
        "meta_mean_motion_ddot": 0,
        "tle_line1": "1 66573U 25268S   25343.25002315 -.00052717  00000+0 -89953-3 0  9995",
        "tle_line2": "2 66573  43.0008 141.5288 0002517 277.5962 148.6355 15.50553635  4101"
      },
      "geometry": {
        "type": "Point",
        "coordinates": [
          118.3883960926633,
          -18.449359215980788
        ]
      }
    },
    {
      "type": "Feature",
      "properties": {
        "norad_id": 66574,
        "name": "STARLINK-35812",
        "group": "last-30-days",
        "lat": -17.24202699422832,
        "lon": 119.90802206899484,
        "alt_km": 416.3581877122033,
        "timestamp": "2025-12-09T14:52:24.942144+00:00",
        "meta_object_name": "STARLINK-35812",
        "meta_object_id": "2025-268T",
        "meta_epoch": "2025-12-09T06:00:02.000160",
        "meta_mean_motion": 15.50577654,
        "meta_eccentricity": 0.00022871,
        "meta_inclination": 43.0007,
        "meta_ra_of_asc_node": 141.5247,
        "meta_arg_of_pericenter": 261.6182,
        "meta_mean_anomaly": 166.4734,
        "meta_ephemeris_type": 0,
        "meta_classification_type": "U",
        "meta_norad_cat_id": 66574,
        "meta_element_set_no": 999,
        "meta_rev_at_epoch": 410,
        "meta_bstar": -0.0010899147,
        "meta_mean_motion_dot": -0.00063766,
        "meta_mean_motion_ddot": 0,
        "tle_line1": "1 66574U 25268T   25343.25002315 -.00063766  00000+0 -10899-2 0  9994",
        "tle_line2": "2 66574  43.0007 141.5247 0002287 261.6182 166.4734 15.50577654  4104"
      },
      "geometry": {
        "type": "Point",
        "coordinates": [
          119.90802206899484,
          -17.24202699422832
        ]
      }
    },
    {
      "type": "Feature",
      "properties": {
        "norad_id": 66575,
        "name": "STARLINK-35810",
        "group": "last-30-days",
        "lat": -16.005857629563938,
        "lon": 121.42834752939501,
        "alt_km": 416.2216156511222,
        "timestamp": "2025-12-09T14:52:24.942153+00:00",
        "meta_object_name": "STARLINK-35810",
        "meta_object_id": "2025-268U",
        "meta_epoch": "2025-12-09T06:00:02.000160",
        "meta_mean_motion": 15.50577055,
        "meta_eccentricity": 0.00022609,
        "meta_inclination": 43.0008,
        "meta_ra_of_asc_node": 141.5196,
        "meta_arg_of_pericenter": 264.4167,
        "meta_mean_anomaly": 165.5902,
        "meta_ephemeris_type": 0,
        "meta_classification_type": "U",
        "meta_norad_cat_id": 66575,
        "meta_element_set_no": 999,
        "meta_rev_at_epoch": 410,
        "meta_bstar": -0.0010451472,
        "meta_mean_motion_dot": -0.00061179,
        "meta_mean_motion_ddot": 0,
        "tle_line1": "1 66575U 25268U   25343.25002315 -.00061179  00000+0 -10451-2 0  9995",
        "tle_line2": "2 66575  43.0008 141.5196 0002260 264.4167 165.5902 15.50577055  4106"
      },
      "geometry": {
        "type": "Point",
        "coordinates": [
          121.42834752939501,
          -16.005857629563938
        ]
      }
    }
  ]
}